IRIDIUM 36              
1 24967U 97056C   25015.56233745  .00000610  00000+0  19772-3 0  9998
2 24967  86.3947 237.0663 0002088  93.1438 266.9999 14.37353801430293
IRIDIUM 39              
1 25042U 97069D   25015.10279703  .00000971  00000+0  25099-3 0  9990
2 25042  86.3906 276.7751 0020119  96.6038 263.7457 14.48824821426791
IRIDIUM 38              
1 25043U 97069E   25015.29076443  .00000756  00000+0  24448-3 0  9995
2 25043  86.3967 297.5088 0000891 142.3233 217.8028 14.37858854423987
IRIDIUM 42              
1 25077U 97077A   25015.31923816  .00000705  00000+0  23547-3 0  9992
2 25077  86.3976 303.4797 0001500  87.8670 272.2698 14.36114484419250
IRIDIUM 44              
1 25078U 97077B   25015.40750637  .00000723  00000+0  22364-3 0  9998
2 25078  86.3956 285.7631 0002941 123.2980 236.8501 14.39983595421710
IRIDIUM 45              
1 25104U 97082A   25015.52984011  .00026758  00000+0  11470-2 0  9993
2 25104  86.3638 121.6134 0133168 180.2475 179.8724 15.14830352428874
IRIDIUM 24              
1 25105U 97082B   25015.43733111  .00000895  00000+0  26788-3 0  9990
2 25105  86.3948 145.0684 0010267 214.3764 145.6772 14.41814969421202
IRIDIUM 51              
1 25262U 98018A   25015.33460757  .00037787  00000+0  11748-2 0  9995
2 25262  86.3919 130.7638 0111084 112.4807 248.8248 15.27229648423608
